OBJECT_NAME,OBJECT_ID,EPOCH,MEAN_MOTION,ECCENTRICITY,INCLINATION,RA_OF_ASC_NODE,ARG_OF_PERICENTER,MEAN_ANOMALY,EPHEMERIS_TYPE,CLASSIFICATION_TYPE,NORAD_CAT_ID,ELEMENT_SET_NO,REV_AT_EPOCH,BSTAR,MEAN_MOTION_DOT,MEAN_MOTION_DDOT
STARLINK-2680,2021-040E,2026-06-29T21:57:40.716576,15.31699137,.00011539,53.1596,350.7807,91.3119,268.8014,0,U,48432,999,28421,.84505033E-4,.2258E-4,0
STARLINK-2699,2021-040F,2026-06-29T20:50:30.550560,15.31702750,.00011102,53.1606,350.7038,69.0144,291.0976,0,U,48433,999,28421,.17341718E-3,.502E-4,0
STARLINK-2692,2021-040G,2026-06-30T13:37:44.507136,15.31697725,.00011598,53.1597,347.6095,101.9658,258.1473,0,U,48434,999,28433,.45042166E-4,.1033E-4,0
STARLINK-2633,2021-040H,2026-06-30T13:08:03.241536,15.31704224,.0001245,53.1598,0.1995,79.7672,280.3470,0,U,48435,999,28414,.38386191E-3,.11567E-3,0
STARLINK-2639,2021-040J,2026-06-29T19:18:38.413728,15.31691505,.00009911,53.1603,16.5346,86.7897,273.3218,0,U,48436,999,28385,.56876534E-4,.14E-4,0
STARLINK-2642,2021-040K,2026-06-30T12:50:31.945344,15.31704556,.00014089,53.1623,26.0321,100.0247,260.0914,0,U,48437,999,28378,.14789629E-3,.4227E-4,0
STARLINK-2640,2021-040L,2026-06-30T12:32:41.777664,15.31697761,.00011578,53.1608,13.2519,95.4010,264.7123,0,U,48438,999,28396,.28644676E-4,.524E-5,0
STARLINK-2583,2021-040M,2026-06-29T19:39:17.673984,15.31697413,.000111,53.1605,16.7104,87.5272,272.5857,0,U,48439,999,28385,.52476675E-4,.1264E-4,0
STARLINK-2682,2021-040N,2026-06-30T13:46:30.517248,15.31707116,.00013122,53.1598,12.9266,83.2980,276.8170,0,U,48440,999,28397,.41463264E-3,.12526E-3,0
STARLINK-2702,2021-040P,2026-06-29T22:13:37.714944,15.31695844,.00010584,53.1607,16.0313,97.6136,262.4985,0,U,48441,999,28387,.13311819E-3,.3767E-4,0
STARLINK-2644,2021-040Q,2026-06-29T19:52:40.389600,15.46655240,.00033296,53.1593,12.6174,265.8658,94.1969,0,U,48442,999,28391,.12865506E-2,.65354E-3,0
STARLINK-2663,2021-040R,2026-06-30T13:26:21.381216,15.31717709,.00014888,53.1607,12.9609,104.2761,255.8405,0,U,48443,999,28397,.24398183E-3,.7217E-4,0
STARLINK-2645,2021-040S,2026-06-30T13:33:05.276160,15.31707383,.00010848,53.1594,13.0275,96.0593,264.0532,0,U,48444,999,28397,.18199484E-3,.5288E-4,0
STARLINK-2634,2021-040T,2026-06-30T13:19:39.318816,15.31706374,.00009098,53.1586,13.0070,102.7993,257.3111,0,U,48445,999,28397,.23807087E-3,.7031E-4,0
STARLINK-2655,2021-040X,2026-06-29T23:00:35.269056,15.31700101,.00009908,53.1606,15.7967,79.1778,280.9335,0,U,48449,999,28388,.79701209E-4,.2109E-4,0
STARLINK-2703,2021-040AA,2026-06-29T22:53:52.582848,15.31702192,.00010213,53.1593,15.8147,69.4976,290.6135,0,U,48452,999,28388,.1408757E-3,.4009E-4,0
STARLINK-2620,2021-040AB,2026-06-29T22:40:27.208704,15.31688183,.00011183,53.1606,15.8328,72.6039,287.5084,0,U,48453,999,28388,.12688081E-3,.3573E-4,0
STARLINK-2654,2021-040AC,2026-06-29T19:25:48.697824,15.31695189,.00012521,53.1598,16.4535,65.6779,294.4353,0,U,48454,999,28386,.51368263E-4,.1229E-4,0
STARLINK-2497,2021-040AD,2026-06-30T00:41:18.647520,15.31705020,.00010112,53.1595,15.7270,82.1464,277.9653,0,U,48455,999,28388,.14741358E-3,.4213E-4,0
STARLINK-2698,2021-040AG,2026-06-30T03:49:47.578944,15.31700301,.00009214,53.1613,15.4981,83.7846,276.3261,0,U,48458,999,28462,.93325076E-4,.2532E-4,0
STARLINK-2579,2021-040AH,2026-06-30T12:25:57.829152,15.31706801,.00007416,53.1602,13.2234,85.5573,274.5513,0,U,48459,999,28398,.51097922E-4,.1221E-4,0
STARLINK-2582,2021-040AJ,2026-06-30T14:00:01.000224,15.84558659,.00045804,53.0463,293.0147,329.3398,169.2017,0,U,48460,999,600,.5639759E-3,.133749E-2,0
STARLINK-2683,2021-040AL,2026-06-29T23:05:00.783168,15.31717949,.00008198,53.1610,28.7240,81.5596,278.5498,0,U,48462,999,28370,.13139104E-4,.43E-6,0
STARLINK-2686,2021-040AN,2026-06-29T23:39:05.226624,15.31703504,.00009577,53.1608,28.7315,72.7021,287.4085,0,U,48464,999,28370,.13082434E-3,.3697E-4,0
STARLINK-2681,2021-040AP,2026-06-30T13:25:47.444160,15.74864588,.00026546,53.1390,9.0754,277.3772,82.6946,0,U,48465,999,28403,.75875364E-3,.115378E-2,0
STARLINK-2687,2021-040AQ,2026-06-30T13:30:48.007296,15.31705724,.00014191,53.1609,25.9660,88.2283,271.8881,0,U,48466,999,28380,.18217361E-3,.5293E-4,0
STARLINK-2659,2021-040AR,2026-06-29T23:45:16.440768,15.31704971,.00010081,53.1591,28.5161,77.2797,282.8317,0,U,48467,999,28371,.14796802E-3,.423E-4,0
STARLINK-2685,2021-040AS,2026-06-30T14:17:49.818336,15.31711466,.00013095,53.1611,26.0733,95.1713,264.9438,0,U,48468,999,28380,.86953432E-4,.2335E-4,0
STARLINK-2661,2021-040AT,2026-06-30T14:11:05.234784,15.31713009,.00009658,53.1589,25.9042,91.8734,268.2378,0,U,48469,999,28380,.20924263E-3,.6136E-4,0
STARLINK-2675,2021-040AU,2026-06-30T13:44:12.691104,15.31713649,.00010114,53.1597,25.8530,83.5892,276.5225,0,U,48470,999,28379,.29235564E-3,.8722E-4,0
STARLINK-2684,2021-040AV,2026-06-29T20:23:56.582016,15.31702632,.00009983,53.1598,29.2249,73.0509,287.0602,0,U,48471,999,28368,.82808492E-3,.25421E-3,0
STARLINK-2722,2021-040AW,2026-06-29T21:24:08.568576,15.12885549,.00021595,53.0600,44.6111,95.7115,264.4123,0,U,48472,999,28344,.15111495E-2,.26703E-3,0
STARLINK-2658,2021-040AX,2026-06-30T13:57:38.025504,15.31713306,.00009939,53.1583,25.7706,82.1742,277.9372,0,U,48473,999,28379,.44805303E-3,.1357E-3,0
STARLINK-2697,2021-040AY,2026-06-30T13:17:30.705504,15.31696949,.00010568,53.1607,26.6527,95.9432,264.1690,0,U,48474,999,28377,.37982281E-4,.814E-5,0
STARLINK-2728,2021-040BC,2026-06-29T22:51:36.415584,15.31691148,.00015463,53.1594,28.8352,84.2295,275.8882,0,U,48478,999,28369,-.21811276E-3,-.7125E-4,0
STARLINK-2755,2021-040BD,2026-06-29T20:10:34.895424,15.31723200,.0000799,53.1604,29.6096,97.0856,263.0237,0,U,48479,999,28367,.11673512E-2,.36061E-3,0
STARLINK-2706,2021-040BF,2026-06-29T20:45:30.841920,15.31706322,.00011437,53.1602,31.5990,79.4016,280.7114,0,U,48481,999,28365,.17241074E-3,.499E-4,0
STARLINK-2525,2021-040BG,2026-06-30T13:18:53.809344,15.31695459,.0001463,53.1604,28.8010,101.6781,258.4384,0,U,48482,999,28375,.9354054E-5,-.75E-6,0
STARLINK-2531,2021-040BH,2026-06-29T20:25:29.760960,15.31696922,.00010212,53.1604,32.2591,81.1017,279.0100,0,U,48483,999,28364,.45922131E-4,.106E-4,0
STARLINK-2500,2021-040BK,2026-06-30T14:32:40.432128,15.31702405,.00006801,53.1585,28.3879,79.8768,280.2310,0,U,48485,999,28376,-.26053122E-4,-.1173E-4,0
STARLINK-2494,2021-040BM,2026-06-29T23:46:49.761408,15.31702583,.00009234,53.1597,31.5536,76.1988,283.9116,0,U,48487,999,28367,.13009191E-3,.3674E-4,0
STARLINK-2063,2021-041A,2026-06-30T02:43:35.188608,15.31700152,.00008225,53.1601,323.7527,92.9271,267.1825,0,U,48553,999,28250,.45938281E-4,.1061E-4,0
STARLINK-2139,2021-041B,2026-06-29T18:47:03.182208,15.31699798,.00011679,53.1606,325.1940,89.8964,270.2172,0,U,48554,999,28245,.86759874E-4,.2328E-4,0
STARLINK-2145,2021-041C,2026-06-29T17:27:58.254048,15.31694993,.00010619,53.1608,347.6915,69.0219,291.0896,0,U,48555,999,28211,.65807748E-4,.1677E-4,0
STARLINK-2151,2021-041D,2026-06-29T20:26:57.043968,15.31707137,.0000616,53.1595,340.6090,63.8697,296.2368,0,U,48556,999,28223,.50733902E-4,.121E-4,0
STARLINK-2155,2021-041E,2026-06-29T19:40:46.469856,15.31699082,.00008634,53.1587,325.1723,84.6134,275.4966,0,U,48557,999,28245,.98199633E-4,.2683E-4,0
STARLINK-2166,2021-041F,2026-06-29T19:34:04.113696,15.31698474,.00010595,53.1590,325.1817,73.0895,287.0223,0,U,48558,999,28159,.1132214E-3,.315E-4,0
STARLINK-2187,2021-041K,2026-06-30T14:00:01.000224,15.69227927,.00012204,53.1545,310.8803,64.6860,341.9862,0,U,48562,999,586,.35380959E-2,.442847E-2,0
STARLINK-2188,2021-041L,2026-06-30T03:03:42.542208,15.31707263,.00012678,53.1618,323.6093,78.1731,281.9412,0,U,48563,999,28250,.14861727E-3,.425E-4,0
STARLINK-2190,2021-041M,2026-06-30T02:50:16.838880,15.31703904,.00009399,53.1605,323.6314,97.3960,262.7148,0,U,48564,999,28250,.73876977E-4,.1928E-4,0
STARLINK-2214,2021-041P,2026-06-29T20:29:08.415168,15.31697860,.00012108,53.1611,347.0673,84.7811,275.3329,0,U,48566,999,28213,-.29082065E-3,-.9378E-4,0
STARLINK-2217,2021-041R,2026-06-29T19:27:23.630688,15.31698851,.00008595,53.1595,325.5036,76.1823,283.9274,0,U,48568,999,28244,.16815087E-4,.157E-5,0
STARLINK-2219,2021-041S,2026-06-30T02:57:00.002880,15.31696838,.00015339,53.1608,323.6189,89.3588,270.7590,0,U,48569,999,28250,.11905485E-3,.333E-4,0
STARLINK-2221,2021-041U,2026-06-30T03:22:30.377568,15.31703256,.00008476,53.1608,336.3755,80.8971,279.2126,0,U,48571,999,28232,.31035619E-3,.9279E-4,0
STARLINK-2222,2021-041V,2026-06-30T03:45:25.351488,15.31699375,.00012158,53.1592,345.6700,95.4150,264.6990,0,U,48572,999,28218,.10418167E-3,.2869E-4,0
STARLINK-2224,2021-041W,2026-06-30T02:10:08.557248,15.31704239,.00010357,53.1600,324.4260,95.7792,264.3327,0,U,48573,999,28248,.10180256E-3,.2796E-4,0
STARLINK-2225,2021-041X,2026-06-30T11:31:38.373600,15.31711236,.0000915,53.1619,296.2152,84.8061,275.3045,0,U,48574,999,28291,.65578179E-4,.1671E-4,0
STARLINK-2227,2021-041Y,2026-06-30T11:00:24.162336,15.31709576,.00010706,53.1596,283.5613,99.9804,260.1318,0,U,48575,999,28310,.10521032E-3,.2902E-4,0
STARLINK-2228,2021-041Z,2026-06-30T11:18:14.456160,15.31712139,.00010452,53.1596,296.3506,77.4611,282.6507,0,U,48576,999,28292,.20271349E-3,.5933E-4,0
STARLINK-2231,2021-041AA,2026-06-29T18:40:22.974816,15.31693067,.00009992,53.1587,325.4234,107.1287,252.9824,0,U,48577,999,28244,.61142051E-4,.1532E-4,0
STARLINK-2232,2021-041AB,2026-06-30T12:34:11.294112,15.31711591,.00009605,53.1604,321.7794,73.6280,286.4827,0,U,48578,999,28256,.50975127E-3,.15492E-3,0
STARLINK-2234,2021-041AD,2026-06-30T11:51:47.295360,15.31706517,.00010606,53.1600,296.1881,90.4430,269.6693,0,U,48580,999,28292,.96618936E-4,.2635E-4,0
STARLINK-2235,2021-041AE,2026-06-30T11:53:18.096576,15.31712942,.00010479,53.1589,299.0234,98.7412,261.3708,0,U,48581,999,28287,.29907916E-3,.8931E-4,0
STARLINK-2236,2021-041AF,2026-06-30T14:00:01.000224,15.43341947,.00010621,53.0528,298.5214,63.7357,252.5800,0,U,48582,999,580,.23153353E-2,.105881E-2,0
